NORAD_CAT_ID,OBJECT_NAME,OBJECT_TYPE,EPOCH,MEAN_MOTION,ECCENTRICITY,INCLINATION,RA_OF_ASC_NODE,ARG_OF_PERICENTER,MEAN_ANOMALY,BSTAR,MEAN_MOTION_DOT,MEAN_MOTION_DDOT,TLE_LINE0,TLE_LINE1,TLE_LINE2,SEMIMAJOR_AXIS,PERIOD,APOGEE,PERIGEE,DECAYED
53401.0,STARLINK-4525,PAYLOAD,2023-06-14 17:11:39,15.08840329,0.0001154,53.2174,288.6828,106.2407,253.8713,4.1387e-05,3.71e-06,0.0,0 STARLINK-4525,1 53401U 22097P   23165.71642562  .00000371  00000-0  41387-4 0  9991,2 53401  53.2174 288.6828 0001154 106.2407 253.8713 15.08840329 47707,6917.879,95.438,540.543,538.946,0.0
53401.0,STARLINK-4525,PAYLOAD,2023-06-15 13:51:40,15.08835514,0.0001304,53.2178,284.8192,104.2799,255.8338,4.407e-05,4.13e-06,0.0,0 STARLINK-4525,1 53401U 22097P   23166.57755215  .00000413  00000-0  44070-4 0  9995,2 53401  53.2178 284.8192 0001304 104.2799 255.8338 15.08835514 47831,6917.894,95.438,540.661,538.857,0.0
53401.0,STARLINK-4525,PAYLOAD,2023-06-15 17:02:26,15.08839749,0.0001148,53.2173,284.2245,87.1939,272.9185,6.2099e-05,7.01e-06,0.0,0 STARLINK-4525,1 53401U 22097P   23166.71002955  .00000701  00000-0  62099-4 0  9998,2 53401  53.2173 284.2245 0001148  87.1939 272.9185 15.08839749 47362,6917.881,95.438,540.54,538.952,0.0
53401.0,STARLINK-4525,PAYLOAD,2023-06-16 13:42:26,15.08846973,9.71e-05,53.2179,280.3613,78.4172,281.6929,0.00013792,1.908e-05,0.0,0 STARLINK-4525,1 53401U 22097P   23167.57114202  .00001908  00000-0  13792-3 0  9997,2 53401  53.2179 280.3613 0000971  78.4172 281.6929 15.08846973 47987,6917.859,95.437,540.396,539.052,0.0
53401.0,STARLINK-4525,PAYLOAD,2023-06-16 16:53:12,15.08857285,0.0001435,53.2165,279.7635,80.5573,279.5581,0.00024036,3.541e-05,0.0,0 STARLINK-4525,1 53401U 22097P   23167.70361290  .00003541  00000-0  24036-3 0  9991,2 53401  53.2165 279.7635 0001435  80.5573 279.5581 15.08857285 48005,6917.828,95.436,540.685,538.7,0.0
53401.0,STARLINK-4525,PAYLOAD,2023-06-17 00:50:09,15.08835634,9.65e-05,53.2172,278.2767,84.2707,275.8395,5.2733e-05,5.52e-06,0.0,0 STARLINK-4525,1 53401U 22097P   23168.03482980  .00000552  00000-0  52733-4 0  9993,2 53401  53.2172 278.2767 0000965  84.2707 275.8395 15.08835634 47566,6917.894,95.438,540.426,539.091,0.0
53401.0,STARLINK-4525,PAYLOAD,2023-06-17 13:33:15,15.08831489,0.0001588,53.2173,275.8987,87.3388,272.7786,2.6313e-05,1.31e-06,0.0,0 STARLINK-4525,1 53401U 22097P   23168.56475789  .00000131  00000-0  26313-4 0  9998,2 53401  53.2173 275.8987 0001588  87.3388 272.7786 15.08831489 48133,6917.906,95.438,540.87,538.673,0.0
53401.0,STARLINK-4525,PAYLOAD,2023-06-18 07:02:29,15.08844201,0.0001025,53.2163,272.6266,88.2735,271.8374,5.7961e-05,6.35e-06,0.0,0 STARLINK-4525,1 53401U 22097P   23169.29339170  .00000635  00000-0  57961-4 0  9994,2 53401  53.2163 272.6266 0001025  88.2735 271.8374 15.08844201 47755,6917.868,95.437,540.442,539.023,0.0
53401.0,STARLINK-4525,PAYLOAD,2023-06-18 13:24:01,15.08846332,0.0001009,53.2162,271.4369,94.0077,266.1031,0.00019152,2.762e-05,0.0,0 STARLINK-4525,1 53401U 22097P   23169.55835066  .00002762  00000-0  19152-3 0  9990,2 53401  53.2162 271.4369 0001009  94.0077 266.1031 15.08846332 48284,6917.861,95.437,540.424,539.028,0.0
53401.0,STARLINK-4525,PAYLOAD,2023-06-19 06:53:16,15.0883802,0.0001019,53.2161,268.1664,95.7886,264.3223,0.0003068,4.598e-05,0.0,0 STARLINK-4525,1 53401U 22097P   23170.28699580  .00004598  00000-0  30680-3 0  9999,2 53401  53.2161 268.1664 0001019  95.7886 264.3223 15.08838020 47907,6917.886,95.438,540.456,539.047,0.0
53401.0,STARLINK-4525,PAYLOAD,2023-06-19 13:14:48,15.08848235,0.0001022,53.2163,266.9767,93.4358,266.6751,0.0003325,5.009e-05,0.0,0 STARLINK-4525,1 53401U 22097P   23170.55195241  .00005009  00000-0  33250-3 0  9998,2 53401  53.2163 266.9767 0001022  93.4358 266.6751 15.08848235 47946,6917.855,95.437,540.427,539.013,0.0
53401.0,STARLINK-4525,PAYLOAD,2023-06-20 05:08:40,15.08844571,0.0001101,53.2165,264.0058,82.5247,277.5871,7.2835e-05,8.72e-06,0.0,0 STARLINK-4525,1 53401U 22097P   23171.21435213  .00000872  00000-0  72835-4 0  9994,2 53401  53.2165 264.0058 0001101  82.5247 277.5871 15.08844571 48049,6917.866,95.437,540.493,538.97,0.0
53401.0,STARLINK-4525,PAYLOAD,2023-06-20 13:05:35,15.08844317,0.0001122,53.2165,262.5184,86.3386,273.7734,5.5203e-05,5.91e-06,0.0,0 STARLINK-4525,1 53401U 22097P   23171.54555122  .00000591  00000-0  55203-4 0  9990,2 53401  53.2165 262.5184 0001122  86.3386 273.7734 15.08844317 48584,6917.867,95.437,540.508,538.956,0.0
53401.0,STARLINK-4525,PAYLOAD,2023-06-20 22:37:54,15.08839279,0.0001103,53.2163,260.7347,86.6792,273.4327,6.8697e-06,-1.78e-06,0.0,0 STARLINK-4525,1 53401U 22097P   23171.94299372 -.00000178  00000-0  68697-5 0  9990,2 53401  53.2163 260.7347 0001103  86.6792 273.4327 15.08839279 48155,6917.883,95.438,540.511,538.985,0.0
53401.0,STARLINK-4525,PAYLOAD,2023-06-21 12:56:23,15.0883997,0.0001061,53.217,258.0582,88.7337,271.3776,4.4477e-05,4.2e-06,0.0,0 STARLINK-4525,1 53401U 22097P   23172.53915526  .00000420  00000-0  44477-4 0  9990,2 53401  53.2170 258.0582 0001061  88.7337 271.3776 15.08839970 48732,6917.88,95.438,540.479,539.011,0.0
53401.0,STARLINK-4525,PAYLOAD,2023-06-22 09:36:24,15.08836229,9.53e-05,53.216,254.192,87.91,272.2001,4.9939e-05,5.07e-06,0.0,0 STARLINK-4525,1 53401U 22097P   23173.40027816  .00000507  00000-0  49939-4 0  9997,2 53401  53.2160 254.1920 0000953  87.9100 272.2001 15.08836229 48377,6917.892,95.438,540.416,539.098,0.0
53401.0,STARLINK-4525,PAYLOAD,2023-06-22 12:47:09,15.08842827,8e-05,53.2165,253.5961,74.5587,285.5493,7.2083e-05,8.6e-06,0.0,0 STARLINK-4525,1 53401U 22097P   23173.53275395  .00000860  00000-0  72083-4 0  9996,2 53401  53.2165 253.5961 0000800  74.5587 285.5493 15.08842827 48397,6917.872,95.437,540.29,539.183,0.0
53401.0,STARLINK-4525,PAYLOAD,2023-06-23 14:13:19,15.08848688,9.34e-05,53.2161,248.8373,85.9385,274.1714,0.00011978,1.62e-05,0.0,0 STARLINK-4525,1 53401U 22097P   23174.59258957  .00001620  00000-0  11978-3 0  9998,2 53401  53.2161 248.8373 0000934  85.9385 274.1714 15.08848688 48556,6917.854,95.437,540.365,539.073,0.0
53401.0,STARLINK-4525,PAYLOAD,2023-06-23 22:10:15,15.08844898,9.15e-05,53.216,247.348,81.052,279.0575,-3.1737e-05,-7.93e-06,0.0,0 STARLINK-4525,1 53401U 22097P   23174.92379375 -.00000793  00000-0 -31737-4 0  9991,2 53401  53.2160 247.3480 0000915  81.0520 279.0575 15.08844898 48609,6917.865,95.437,540.363,539.097,0.0
53401.0,STARLINK-4525,PAYLOAD,2023-06-24 04:31:48,15.0883687,0.0001032,53.2149,246.1615,87.5681,272.5429,6.5283e-05,7.51e-06,0.0,0 STARLINK-4525,1 53401U 22097P   23175.18875870  .00000751  00000-0  65283-4 0  9996,2 53401  53.2149 246.1615 0001032  87.5681 272.5429 15.08836870 48644,6917.89,95.438,540.469,539.041,0.0
53401.0,STARLINK-4525,PAYLOAD,2023-06-25 09:08:44,15.08863152,0.00017,53.2161,240.8097,105.6798,254.4381,-0.00019918,-3.459e-05,0.0,0 STARLINK-4525,1 53401U 22097P   23176.38106912 -.00003459  00000-0 -19918-3 0  9996,2 53401  53.2161 240.8097 0001700 105.6798 254.4381 15.08863152 48825,6917.81,95.436,540.851,538.499,0.0
53401.0,STARLINK-4525,PAYLOAD,2023-06-25 10:44:07,15.08847174,0.0001018,53.2156,240.5113,95.9089,264.2019,6.8922e-05,8.09e-06,0.0,0 STARLINK-4525,1 53401U 22097P   23176.44731201  .00000809  00000-0  68922-4 0  9992,2 53401  53.2156 240.5113 0001018  95.9089 264.2019 15.08847174 48835,6917.858,95.437,540.428,539.019,0.0
53401.0,STARLINK-4525,PAYLOAD,2023-06-26 08:59:32,15.0883366,0.0001038,53.215,236.3484,91.3588,268.7523,4.5844e-05,4.42e-06,0.0,0 STARLINK-4525,1 53401U 22097P   23177.37468185  .00000442  00000-0  45844-4 0  9994,2 53401  53.2150 236.3484 0001038  91.3588 268.7523 15.08833660 48978,6917.9,95.438,540.483,539.047,0.0
53401.0,STARLINK-4525,PAYLOAD,2023-06-27 10:25:42,15.08841324,0.0001073,53.2154,231.5905,94.0933,266.0182,4.2632e-05,3.91e-06,0.0,0 STARLINK-4525,1 53401U 22097P   23178.43451726  .00000391  00000-0  42632-4 0  9990,2 53401  53.2154 231.5905 0001073  94.0933 266.0182 15.08841324 49137,6917.876,95.437,540.484,538.999,0.0
53401.0,STARLINK-4525,PAYLOAD,2023-06-28 08:41:06,15.08834554,0.0001025,53.2157,227.4275,91.8076,268.3034,5.418e-05,5.74e-06,0.0,0 STARLINK-4525,1 53401U 22097P   23179.36188255  .00000574  00000-0  54180-4 0  9991,2 53401  53.2157 227.4275 0001025  91.8076 268.3034 15.08834554 49277,6917.897,95.438,540.471,539.053,0.0
53401.0,STARLINK-4525,PAYLOAD,2023-06-29 11:42:40,15.08834754,0.0001073,53.2159,222.3718,95.1711,264.9404,4.8555e-06,-2.11e-06,0.0,0 STARLINK-4525,1 53401U 22097P   23180.48796698 -.00000211  00000-0  48555-5 0  9991,2 53401  53.2159 222.3718 0001073  95.1711 264.9404 15.08834754 49445,6917.896,95.438,540.504,539.019,0.0
53401.0,STARLINK-4525,PAYLOAD,2023-07-01 08:13:28,15.08832507,9.62e-05,53.2151,214.0451,82.5295,277.5806,4.6166e-06,-2.14e-06,0.0,0 STARLINK-4525,1 53401U 22097P   23182.34269009 -.00000214  00000-0  46166-5 0  9998,2 53401  53.2151 214.0451 0000962  82.5295 277.5806 15.08832507 49723,6917.903,95.438,540.434,539.103,0.0
53401.0,STARLINK-4525,PAYLOAD,2023-07-02 09:39:38,15.08840735,9.57e-05,53.2153,209.2881,89.8076,270.3026,2.0032e-07,-2.85e-06,0.0,0 STARLINK-4525,1 53401U 22097P   23183.40252603 -.00000285  00000-0  20032-6 0  9991,2 53401  53.2153 209.2881 0000957  89.8076 270.3026 15.08840735 49883,6917.878,95.438,540.405,539.081,0.0
53401.0,STARLINK-4525,PAYLOAD,2023-07-03 11:05:48,15.08842024,9.36e-05,53.2155,204.5299,87.9223,272.1876,0.0001007,1.315e-05,0.0,0 STARLINK-4525,1 53401U 22097P   23184.46236153  .00001315  00000-0  10070-3 0  9992,2 53401  53.2155 204.5299 0000936  87.9223 272.1876 15.08842024 50042,6917.874,95.437,540.387,539.092,0.0
53401.0,STARLINK-4525,PAYLOAD,2023-07-04 01:24:16,15.08838198,9.42e-05,53.2153,201.854,85.4702,274.6398,2.8879e-05,1.72e-06,0.0,0 STARLINK-4525,1 53401U 22097P   23185.05852610  .00000172  00000-0  28879-4 0  9997,2 53401  53.2153 201.8540 0000942  85.4702 274.6398 15.08838198 50134,6917.886,95.438,540.403,539.099,0.0
